2022-169A               
1 54699U 22169A   23003.36547252  .00000380  00000+0  20479-3 0  9990
2 54699  59.9968  84.4111 0004405 270.7171  89.3330 14.28667294  3141
2022-169B               
1 54700U 22169B   23003.02140510  .00000075  00000+0  83855-4 0  9991
2 54700  59.9963  85.5923 0006533 261.6742  98.3570 14.28671405  3098
2022-169C               
1 54701U 22169C   23003.12469218  .00000227  00000+0  95070-4 0  9993
2 54701  59.9576  82.6831 0095484  58.0157 303.0127 14.49504584  3153
2022-169D               
1 54702U 22169D   23003.36454952  .00000682  00000+0  32114-3 0  9993
2 54702  59.9986  84.4131 0006051 275.9996  84.0356 14.29156558  3157
SZ-14 MODULE            
1 54704U 22060G   23003.24584515  .00028172  00000+0  32313-3 0  9996
2 54704  41.4880  80.9081 0009179 276.5380 132.7407 15.61398014  4400
GALAXY 35 (G-35)        
1 54741U 22170A   23002.70238281  .00000144  00000+0  00000+0 0  9998
2 54741   0.0141 256.6655 0002145 110.2846 197.9021  1.00271807   249
GALAXY 36 (G-36)        
1 54742U 22170B   23002.70246997  .00000144  00000+0  00000+0 0  9992
2 54742   0.0141  74.6685 0002033 196.6737 293.6715  1.00275148   127
METEOSAT-12 (MTG-1)     
1 54743U 22170C   22353.31524981 -.00000002  00000+0  00000+0 0  9994
2 54743   5.5504 217.8990 7131836 181.4542 110.3708  2.25104636   115
ARIANE 5 DEB [SYLDA]    
1 54744U 22170D   22362.47558301  .00019359  00000+0  48906-2 0  9999
2 54744   5.9816 212.9323 7277424 190.0227 137.2739  2.28861921   327
ARIANE 5 R/B            
1 54745U 22170E   22361.54777604  .00004540  00000+0  84527-3 0  9992
2 54745   5.7426 215.2605 7276934 187.1761 149.0086  2.29704568   316
2022-171A               
1 54746U 22171A   23003.04910957 -.00000037  00000+0  00000+0 0  9991
2 54746  34.9934 214.0256 0006302  67.3798  65.4522 15.22445807  2948
2022-171B               
1 54747U 22171B   23003.60852103  .00023440  00000+0  93857-3 0  9990
2 54747  34.9942 210.3181 0006142  75.2236 321.3520 15.24141206  3009
2022-171C               
1 54748U 22171C   23003.31661802 -.00000037  00000+0  00000+0 0  9995
2 54748  34.9943 212.3253 0005923 131.7269  37.2067 15.22299180  2958
2022-171D               
1 54749U 22171D   23003.60344507  .00027204  00000+0  10744-2 0  9991
2 54749  34.9951 210.2811 0006390  87.2500 307.8537 15.24573779  3003
2022-171E               
1 54750U 22171E   23003.31380376 -.00000038  00000+0  00000+0 0  9993
2 54750  34.9941 212.3062 0012164  79.6500  87.7573 15.22372154  2944
2022-167Q               
1 54751U 22167Q   23003.19554692  .00008654  00000+0  53717-3 0  9997
2 54751  97.5373 142.7818 0014235 192.3922 290.2763 15.09857665  3411
SHIYAN 21               
1 54752U 22172A   23003.15608721  .00009511  00000+0  34266-3 0  9994
2 54752  36.0023  42.9230 0012415 101.0846 300.3712 15.27862414  2741
SWOT                    
1 54754U 22173A   23003.34201934  .00134737  00000+0  76186-1 0  9997
2 54754  77.5949 301.5476 0001806  78.9858 280.7779 14.09174763  2514
O3B MPOWER-A F1         
1 54755U 22174A   22356.18260191  .00000047  00000+0  00000+0 0  9997
2 54755   9.6319 253.0871 1859317 195.2651 337.7567  7.25479946   387
O3B MPOWER-A F2         
1 54756U 22174B   23003.21161196  .00000048  00000+0  00000+0 0  9998
2 54756   9.6146 235.7736 1870498 229.4806 112.6842  7.26306231  1258
FALCON 9 R/B            
1 54757U 22174C   23003.07412114  .00000052  00000+0  19909-2 0  9998
2 54757   9.6205 235.9805 1869522 229.0982 113.1656  7.26306254  1222
STARLINK-5464           
1 54758U 22175A   23002.86130686  .00077894  00000+0  55280-3 0  9998
2 54758  53.2146 226.7434 0001625  28.1008 332.0100 15.73262418  4421
STARLINK-5215           
1 54759U 22175B   23003.24215916  .00030901  00000+0  22370-3 0  9994
2 54759  53.2141 224.8513 0000878  57.1282 302.9823 15.73208271  2321
STARLINK-5220           
1 54760U 22175C   23003.33334491 -.01196116  00000+0 -10645-1 0  9990
2 54760  53.2173 224.4113 0001193  82.8565  67.6867 15.70368072  2337
STARLINK-5202           
1 54761U 22175D   23003.33334491 -.01195869  00000+0 -10660-1 0  9992
2 54761  53.2173 224.4122 0001196  75.3874  74.4044 15.70329165  2334
STARLINK-5214           
1 54762U 22175E   23003.33334491 -.01197109  00000+0 -10623-1 0  9991
2 54762  53.2173 224.4070 0001155  86.5496  66.0597 15.70439334  2336
STARLINK-5191           
1 54763U 22175F   23003.05185173 -.00627325  00000+0 -50635-2 0  9997
2 54763  53.2144 225.7995 0001292 200.8594 159.2374 15.71992539  2292
STARLINK-5458           
1 54764U 22175G   23003.11527083 -.00122506  00000+0 -95355-3 0  9995
2 54764  53.2140 225.4839 0000769 354.6465   5.4546 15.71348985  2301
STARLINK-5466           
1 54765U 22175H   23003.33334491 -.01196302  00000+0 -10599-1 0  9990
2 54765  53.2173 224.4050 0001176  83.2726  70.0740 15.70475095  2340
STARLINK-5471           
1 54766U 22175J   23003.33334491 -.01194190  00000+0 -10528-1 0  9996
2 54766  53.2173 224.4011 0001230  68.5854  86.9801 15.70587627  2335
STARLINK-5472           
1 54767U 22175K   23003.24212056 -.00119853  00000+0 -93781-3 0  9995
2 54767  53.2144 224.8549 0000777  20.6015 339.5036 15.71214572  2320
STARLINK-5444           
1 54768U 22175L   23003.24121472  .00030551  00000+0  22130-3 0  9992
2 54768  53.2147 224.8500 0001238  63.2828 296.8319 15.73200139  2324
STARLINK-5404           
1 54769U 22175M   23003.33334491 -.01195993  00000+0 -10563-1 0  9990
2 54769  53.2173 224.4023 0001222  74.7945  80.0237 15.70548610  2339
STARLINK-5448           
1 54770U 22175N   23002.85983379  .00032104  00000+0  23216-3 0  9995
2 54770  53.2149 226.7349 0001231  90.7361 269.3801 15.73212345  4427
STARLINK-5451           
1 54771U 22175P   23003.11430289 -.00445450  00000+0 -34043-2 0  9996
2 54771  53.2146 225.4794 0003953   6.8222 353.2851 15.72739789  2300
STARLINK-5452           
1 54772U 22175Q   23003.11383820  .00032658  00000+0  23609-3 0  9992
2 54772  53.2141 225.4749 0000859  43.9071 316.2018 15.73210899  2303
STARLINK-5453           
1 54773U 22175R   23003.17816702 -.00190121  00000+0 -14925-2 0  9991
2 54773  53.2142 225.1659 0000810  12.4011 347.7028 15.71379294  2318
STARLINK-5454           
1 54774U 22175S   23003.24057737 -.00007382  00000+0 -48235-4 0  9994
2 54774  53.2145 224.8437 0001344  35.9238 324.1872 15.73195052  2323
STARLINK-5465           
1 54775U 22175T   23003.58334491 -.01195099  00000+0 -10779-1 0  9990
2 54775  53.2175 223.1587 0001229  68.7246  65.5157 15.70047866  2373
STARLINK-5470           
1 54776U 22175U   23003.58334491 -.01194370  00000+0 -10739-1 0  9998
2 54776  53.2172 223.1558 0001471  47.4425  88.8965 15.70118104  2370
STARLINK-5468           
1 54777U 22175V   23003.58334491 -.01195041  00000+0 -10762-1 0  9991
2 54777  53.2175 223.1572 0001256  64.8249  70.1709 15.70083930  2376
STARLINK-5450           
1 54778U 22175W   23003.24026791  .00041738  00000+0  29979-3 0  9998
2 54778  53.2148 224.8437 0001265  48.5088 311.6040 15.73241962  2325
STARLINK-5447           
1 54779U 22175X   23003.24037693  .00044926  00000+0  32243-3 0  9992
2 54779  53.2143 224.8419 0001403  36.7682 323.3434 15.73227032  2323
STARLINK-5449           
1 54780U 22175Y   23002.92117014 -.00197628  00000+0 -14522-2 0  9993
2 54780  53.2144 226.4052 0002956 319.8998  40.1804 15.72946691  2273
STARLINK-5443           
1 54781U 22175Z   23003.11310518 -.00017809  00000+0 -12268-3 0  9998
2 54781  53.2150 225.4723 0001891  44.2051 315.9120 15.73208827  2302
STARLINK-5437           
1 54782U 22175AA  23003.00001157  .00094717  00000+0  67342-3 0  9997
2 54782  53.2155 225.6799 0001912  44.5236 203.9650 15.73139141  2288
STARLINK-5439           
1 54783U 22175AB  23003.58334491  .00079708  00000+0  56767-3 0  9993
2 54783  53.2141 223.1418 0001150  79.3174  66.1545 15.73170967  2379
STARLINK-5442           
1 54784U 22175AC  23002.73173064 -.00185662  00000+0 -13816-2 0  9993
2 54784  53.2152 227.3581 0000552 102.6211 257.4871 15.72624428  4404
STARLINK-5440           
1 54785U 22175AD  23003.58334491  .00060329  00000+0  43090-3 0  9999
2 54785  53.2150 222.7806 0001081  91.6263 228.3440 15.73215457  2376
STARLINK-5438           
1 54786U 22175AE  23003.23931626  .00023623  00000+0  17229-3 0  9996
2 54786  53.2149 224.8375 0001438  40.9696 319.1432 15.73195072  2327
STARLINK-5441           
1 54787U 22175AF  23003.58334491 -.01196129  00000+0 -10728-1 0  9992
2 54787  53.2171 223.1465 0001255  70.7956  69.9900 15.70183217  2372
STARLINK-5399           
1 54788U 22175AG  23003.23910308  .00032678  00000+0  23619-3 0  9992
2 54788  53.2151 224.8364 0001160  81.1341 278.9810 15.73215337  2325
STARLINK-5446           
1 54789U 22175AH  23003.58334491  .00050585  12327-4  11184-3 0  9995
2 54789  53.2117 221.6668 0035470 113.1446  26.4849 15.97294058  2391
STARLINK-5445           
1 54790U 22175AJ  23003.58334491  .00060633  00000+0  43390-3 0  9996
2 54790  53.2145 223.1291 0001467  34.7394 117.2746 15.73168114  2372
STARLINK-5425           
1 54791U 22175AK  23003.11236805  .00044356  00000+0  31849-3 0  9996
2 54791  53.2146 225.4664 0001356  60.7579 299.3577 15.73221846  2303
STARLINK-5431           
1 54792U 22175AL  23003.58334491 -.01179704  00000+0 -10542-1 0  9992
2 54792  53.2170 223.1335 0001726  34.0861 113.5130 15.70231097  2375
STARLINK-5433           
1 54793U 22175AM  23003.23659589  .00035858  00000+0  25839-3 0  9998
2 54793  53.2154 224.8179 0001338  55.5615 304.5531 15.73238421  2329
STARLINK-5392           
1 54794U 22175AN  23003.23877004  .00382069  00000+0  26389-2 0  9992
2 54794  53.2150 224.8352 0000907  91.0240 269.0884 15.72893282  2326
STARLINK-5436           
1 54795U 22175AP  23003.11195178  .00029981  00000+0  21716-3 0  9996
2 54795  53.2153 225.4652 0001278  49.7731 310.3401 15.73211792  2301
